OUFTI-1                 
1 41458U 16025C   22066.90106862  .00012928  00000+0  58756-3 0  9999
2 41458  98.1750 226.0773 0149576 249.6798 108.8303 15.11376955322225
E-ST@R-II               
1 41459U 16025D   22067.18354018  .00010275  00000+0  47534-3 0  9994
2 41459  98.1717 225.1090 0152219 252.5398 105.9232 15.10562289322199
AAUSAT 4                
1 41460U 16025E   22066.98897338  .00018929  00000+0  80594-3 0  9997
2 41460  98.1676 230.2816 0136031 232.0956 126.7929 15.14938080322559
AIST-2D (RS-48)         
1 41465U 16026B   22067.17025650  .00009815  00000+0  25702-3 0  9999
2 41465  97.0721 307.0021 0011244 132.5636  24.2431 15.38834966327943
SAMSAT-218D             
1 41466U 16026C   22062.43880789  .07985188  24080-5  16740-2 0  9990
2 41466  97.1087 340.3702 0002849 146.1677 213.9800 16.31028938329401
NUSAT-1 (FRESCO)        
1 41557U 16033B   22067.10132008  .00009757  00000+0  31829-3 0  9990
2 41557  97.3863 164.8718 0012401  24.3174  96.0223 15.31922420321854
NUSAT-2 (BATATA)        
1 41558U 16033C   22067.13059353  .00009353  00000+0  28603-3 0  9993
2 41558  97.4029 170.0432 0011324  16.9149 102.2405 15.34013232322100
CARTOSAT-2C             
1 41599U 16040A   22067.17470198  .00002393  00000+0  11674-3 0  9991
2 41599  97.5012 127.5848 0013592 172.5053 271.8556 15.19206594316558
SATHYABAMASAT           
1 41600U 16040B   22066.71351268  .00012900  00000+0  45617-3 0  9998
2 41600  97.2356 121.7455 0013498 121.2421 239.0144 15.29212237317332
LAPAN-A3                
1 41603U 16040E   22067.08751880  .00001168  00000+0  56587-4 0  9999
2 41603  97.2210 108.4717 0013894 150.3561 293.8560 15.20345144316632
BIROS                   
1 41604U 16040F   22066.87824160  .00003734  00000+0  15918-3 0  9991
2 41604  97.2257 115.0787 0013306 127.4843 232.7607 15.23459607316997
SWAYAM                  
1 41607U 16040J   22066.87833669  .00012640  00000+0  45482-3 0  9993
2 41607  97.2310 120.3679 0013312 121.3656 238.8889 15.28649773317249
BEESAT-4                
1 41619U 16040W   22066.64957819  .00010905  00000+0  39965-3 0  9996
2 41619  97.2323 120.1439 0011570 116.5673 243.6754 15.28104796305161
3CAT-2                  
1 41732U 16051B   22066.74404100  .00008849  00000+0  29661-3 0  9991
2 41732  97.3828 350.1177 0010808 300.7020 114.1820 15.31096083309756
PRATHAM                 
1 41783U 16059A   22066.67863016  .00000353  00000+0  76884-4 0  9994
2 41783  97.9287 112.2413 0034532 133.9778 226.4281 14.63249456290747
ALSAT 1N                
1 41789U 16059G   22067.17150346  .00000332  00000+0  70956-4 0  9992
2 41789  97.9323 117.0478 0029468 116.3543 244.0703 14.64556563291045
LISHUI 1-01             
1 41845U 16066E   22067.09148083  .00025184  00000+0  28633-2 0  9994
2 41845  98.7269 190.8980 0235262  27.0082 334.3007 14.68235018281930
CARTOSAT-2D             
1 41948U 17008A   22066.79869354  .00002452  00000+0  11947-3 0  9996
2 41948  97.4059 127.6912 0006300 333.4588  26.6340 15.19261421280365
NAYIF-1 (EO-88)         
1 42017U 17008BX  22066.92407768  .00013362  00000+0  44624-3 0  9996
2 42017  97.2813 134.7143 0004262 241.9043 118.1768 15.31143195281529
ZHUHAI-1 02 (CAS-4B)    
1 42759U 17034B   22067.13353699  .00003120  00000+0  19644-3 0  9990
2 42759  43.0163 170.7999 0008632   3.1701  62.7795 15.11010759261026
ZHUHAI-1 01 (CAS-4A)    
1 42761U 17034D   22067.17712375  .00003006  00000+0  18932-3 0  9999
2 42761  43.0165 169.4220 0008828   4.1262  71.2098 15.11096878261031
UCLSAT                  
1 42765U 17036A   22066.84709357  .00009444  00000+0  35703-3 0  9991
2 42765  97.2134 112.8040 0009053 333.8686  26.2095 15.27140392262336
NIUSAT                  
1 42766U 17036B   22067.10925413  .00007455  00000+0  30599-3 0  9993
2 42766  97.2167 108.6148 0013261 331.7750  28.2767 15.24421110261356
CARTOSAT-2E             
1 42767U 17036C   22067.15125671  .00002552  00000+0  12420-3 0  9993
2 42767  97.4684 128.8978 0008433  18.8928   7.2910 15.19269983260980
LITUANICASAT-2          
1 42768U 17036D   22067.08963622  .00018453  00000+0  62848-3 0  9998
2 42768  97.2219 114.9452 0010730 314.0782  45.9575 15.30390026261723
AALTO-1                 
1 42775U 17036L   22067.11155767  .00006240  00000+0  25943-3 0  9999
2 42775  97.2126 108.6777 0011990 331.7638  28.2948 15.24070067261331
URSA MAIOR              
1 42776U 17036M   22067.05847097  .00006859  00000+0  28147-3 0  9992
2 42776  97.2139 109.2656 0011675 330.8454  29.2131 15.24476159261354
COMPASS 2               
1 42777U 17036N   22067.09659325  .00013152  00000+0  47144-3 0  9994
2 42777  97.2202 114.6843 0009308 318.4003  41.6528 15.28809468261643
MAX VALIER SAT          
1 42778U 17036P   22066.68884801  .00005988  00000+0  24116-3 0  9990
2 42778  97.2207 111.3385 0010272 334.2764  25.7962 15.25174662261380
PEGASUS                 
1 42784U 17036V   22067.11172537  .00008949  00000+0  34500-3 0  9990
2 42784  97.2146 112.4203 0009838 335.3060  24.7707 15.26498267261542
NUDTSAT                 
1 42787U 17036Y   22067.03168612  .00012932  00000+0  45193-3 0  9990
2 42787  97.2190 115.8029 0008852 325.7118  34.3553 15.29648427261576
SUCHAI                  
1 42788U 17036Z   22066.68228901  .00010445  00000+0  38762-3 0  9990
2 42788  97.2154 113.4012 0009209 332.3771  27.6978 15.27724071261630
SKCUBE                  
1 42789U 17036AA  22066.70439079  .00008928  00000+0  33650-3 0  9998
2 42789  97.2150 112.9845 0009146 333.5360  26.5411 15.27256125261531
VZLUSAT-1               
1 42790U 17036AB  22066.90224987  .00013941  00000+0  48783-3 0  9996
2 42790  97.2181 115.6592 0008034 325.0098  35.0614 15.29593452261703
ROBUSTA-1B              
1 42792U 17036AD  22066.68958382  .00010045  00000+0  37399-3 0  9999
2 42792  97.2149 113.4672 0008739 333.7455  26.3341 15.27632020261577
D-SAT                   
1 42794U 17036AF  22066.76765195  .00003044  00000+0  26216-3 0  9995
2 42794  97.4547  77.5698 0125902  65.9319 295.5014 14.92073517256310
NORSAT 2                
1 42828U 17042D   22067.12970255  .00001696  00000+0  17078-3 0  9993
2 42828  97.4439 289.0870 0013968 349.6809  10.4122 14.92341408253031
TECHNOSAT               
1 42829U 17042E   22067.13001372  .00001010  00000+0  10582-3 0  9993
2 42829  97.4349 287.1140 0013891 352.8995   7.2025 14.91568049252988
2017-042F               
1 42830U 17042F   22067.08988855  .00004612  00000+0  43820-3 0  9991
2 42830  97.4483 290.8701 0013388 342.8936  17.1832 14.93876712253144
FLYING LAPTOP           
1 42831U 17042G   22066.70075427  .00001498  00000+0  15446-3 0  9994
2 42831  97.4361 287.0047 0013589 354.9764   5.1342 14.91549532252920
CORVUS BC2              
1 42846U 17042X   22067.12963013  .00000927  00000+0  95175-4 0  9998
2 42846  97.4375 290.1017 0009072 345.7844  14.3119 14.92591895253163
CORVUS BC1              
1 42847U 17042Y   22066.88208543  .00001186  00000+0  12006-3 0  9990
2 42847  97.4380 290.1552 0008746 345.9915  14.1062 14.92690359253139
SIMPL                   
1 42983U 98067NF  22067.08957110  .00054843  00000+0  31812-3 0  9995
2 42983  51.6359 351.8603 0001939 211.8961 148.1923 15.77983865248846
CZ-4C R/B               
1 43012U 17072C   22066.92900507  .00000235  00000+0  59842-4 0  9996
2 43012  98.7109  98.6147 0126258 267.8601  90.8134 14.56269283229087
RADFXSAT (FOX-1B)       
1 43017U 17073E   22066.95697250  .00003025  00000+0  23310-3 0  9993
2 43017  97.6866 325.2969 0252230 159.6349 201.5146 14.80482832232091
EAGLESAT 1              
1 43018U 17073F   22066.69616443  .00004582  00000+0  34169-3 0  9993
2 43018  97.6890 326.4854 0246976 155.4619 205.8589 14.82114663232015
INS-1C                  
1 43116U 18004F   22067.18430013  .00009196  00000+0  34504-3 0  9998
2 43116  97.3844 144.0864 0008151   1.5058 358.6204 15.27413272230864
FLOCK 3P'-3             
1 43119U 18004J   22066.76041086  .00006555  00000+0  25953-3 0  9996
2 43119  97.3836 142.0523 0009311  12.7753 347.3719 15.25733070230701
FLOCK 3P'-2             
1 43120U 18004K   22066.73481359  .00005161  00000+0  20766-3 0  9995
2 43120  97.3844 141.7063 0009536  13.8582 346.2915 15.25293892230673
FLOCK 3P'-1             
1 43121U 18004L   22067.17304759  .00017044  00000+0  56138-3 0  9998
2 43121  97.3846 145.7781 0007284 357.1709   2.9490 15.31522666230912
FLOCK 3P'-4             
1 43122U 18004M   22067.18257556  .00004923  00000+0  19797-3 0  9994
2 43122  97.3852 142.3015 0009309  13.9735 346.1759 15.25335588230749
MICROMAS-2A             
1 43131U 18004W   22066.76754746  .00018006  00000+0  59824-3 0  9992
2 43131  97.3832 146.1677 0007078 358.3059   1.8157 15.31232680230999
PICSAT                  
1 43132U 18004X   22067.18053819  .00010900  00000+0  39611-3 0  9990
2 43132  97.3801 144.3060 0008150   7.0720 353.0633 15.28421596230923
CNUSAIL-1               
1 43133U 18004Y   22066.70437876  .00007513  00000+0  28906-3 0  9998
2 43133  97.3767 142.2275 0008846  13.1214 347.0254 15.26642207230764
2018-004Z               
1 43134U 18004Z   22066.65860535  .00009041  00000+0  33645-3 0  9999
2 43134  97.3790 143.2397 0008381  11.1712 348.9711 15.27688468230816
FOX-1D (AO-92)          
1 43137U 18004AC  22067.19888567  .00008002  00000+0  30245-3 0  9996
2 43137  97.3772 143.3946 0008196  11.1101 349.0318 15.27216172230876
STEP CUBE LAB           
1 43138U 18004AD  22067.18741561  .00014255  00000+0  48776-3 0  9993
2 43138  97.3834 146.1911 0007240   3.7923 356.3371 15.30328665231031
XIAOXIANG-2             
1 43155U 18008A   22067.15080935  .00005267  00000+0  29412-3 0  9993
2 43155  97.3673 128.8494 0018040 133.0903 311.2473 15.13800136227946
ZHOU ENLAI              
1 43156U 18008B   22067.14840692  .00004981  00000+0  28115-3 0  9998
2 43156  97.3719 128.7000 0015127 132.5212 312.9977 15.13483180227875
